{"type": "FeatureCollection", "features": [ {"type": "Feature", "properties": {"norad_id": 34058, "name": "COSMOS 2251 DEB", "group": "cosmos-2251-debris", "lat": -63.3479326601632, "lon": 141.2494151682685, "alt_km": 1190.2547151923663, "timestamp": "2025-12-13T20:38:51.401404+00:00", "meta": {"OBJECT_NAME": "COSMOS 2251 DEB", "OBJECT_ID": "1993-036JV", "EPOCH": "2025-12-13T07:42:37.638144", "MEAN_MOTION": 13.56077428, "ECCENTRICITY": 0.0377915, "INCLINATION": 73.9314, "RA_OF_ASC_NODE": 177.1699, "ARG_OF_PERICENTER": 172.2975, "MEAN_ANOMALY": 4.9052, "EPHEMERIS_TYPE": 0, "CLASSIFICATION_TYPE": "U", "NORAD_CAT_ID": 34058, "ELEMENT_SET_NO": 999, "REV_AT_EPOCH": 83150, "BSTAR": 0.00099808143, "MEAN_MOTION_DOT": 1.087e-05, "MEAN_MOTION_DDOT": 0}, "tle": {"line1": "1 34058U 93036JV  25347.32126896  .00001087  00000+0  99808-3 0  9991", "line2": "2 34058  73.9314 177.1699 0377915 172.2975   4.9052 13.56077428831504"}}, "geometry": {"type": "Point", "coordinates": [141.2494151682685, -63.3479326601632]}}, {"type": "Feature", "properties": {"norad_id": 34059, "name": "COSMOS 2251 DEB", "group": "cosmos-2251-debris", "lat": 1.1692482863719977, "lon": 3.828503271223234, "alt_km": 716.7432151023831, "timestamp": "2025-12-13T20:38:51.401418+00:00", "meta": {"OBJECT_NAME": "COSMOS 2251 DEB", "OBJECT_ID": "1993-036JW", "EPOCH": "2025-12-13T00:34:57.302112", "MEAN_MOTION": 14.52950208, "ECCENTRICITY": 0.00186285, "INCLINATION": 74.0377, "RA_OF_ASC_NODE": 185.7398, "ARG_OF_PERICENTER": 262.9992, "MEAN_ANOMALY": 224.6324, "EPHEMERIS_TYPE": 0, "CLASSIFICATION_TYPE": "U", "NORAD_CAT_ID": 34059, "ELEMENT_SET_NO": 999, "REV_AT_EPOCH": 88463, "BSTAR": 0.0011157878, "MEAN_MOTION_DOT": 4.585e-05, "MEAN_MOTION_DDOT": 0}, "tle": {"line1": "1 34059U 93036JW  25347.02427433  .00004585  00000+0  11158-2 0  9997", "line2": "2 34059  74.0377 185.7398 0018628 262.9992 224.6324 14.52950208884634"}}, "geometry": {"type": "Point", "coordinates": [3.828503271223234, 1.1692482863719977]}}, {"type": "Feature", "properties": {"norad_id": 34061, "name": "COSMOS 2251 DEB", "group": "cosmos-2251-debris", "lat": 60.34263036594671, "lon": 51.14535717402074, "alt_km": 761.8666415793305, "timestamp": "2025-12-13T20:38:51.401429+00:00", "meta": {"OBJECT_NAME": "COSMOS 2251 DEB", "OBJECT_ID": "1993-036JY", "EPOCH": "2025-12-13T05:51:55.639872", "MEAN_MOTION": 14.40359936, "ECCENTRICITY": 0.00205649, "INCLINATION": 74.0393, "RA_OF_ASC_NODE": 262.4563, "ARG_OF_PERICENTER": 339.248, "MEAN_ANOMALY": 183.4171, "EPHEMERIS_TYPE": 0, "CLASSIFICATION_TYPE": "U", "NORAD_CAT_ID": 34061, "ELEMENT_SET_NO": 999, "REV_AT_EPOCH": 88187, "BSTAR": 0.00054710821, "MEAN_MOTION_DOT": 1.714e-05, "MEAN_MOTION_DDOT": 0}, "tle": {"line1": "1 34061U 93036JY  25347.24439398  .00001714  00000+0  54711-3 0  9991", "line2": "2 34061  74.0393 262.4563 0020564 339.2480 183.4171 14.40359936881877"}}, "geometry": {"type": "Point", "coordinates": [51.14535717402074, 60.34263036594671]}}, {"type": "Feature", "properties": {"norad_id": 34062, "name": "COSMOS 2251 DEB", "group": "cosmos-2251-debris", "lat": 28.645678138755144, "lon": 144.83411738102112, "alt_km": 683.8275035179586, "timestamp": "2025-12-13T20:38:51.401440+00:00", "meta": {"OBJECT_NAME": "COSMOS 2251 DEB", "OBJECT_ID": "1993-036JZ", "EPOCH": "2025-12-12T12:19:02.729856", "MEAN_MOTION": 14.78653327, "ECCENTRICITY": 0.00746851, "INCLINATION": 74.0279, "RA_OF_ASC_NODE": 138.4814, "ARG_OF_PERICENTER": 217.6273, "MEAN_ANOMALY": 204.3371, "EPHEMERIS_TYPE": 0, "CLASSIFICATION_TYPE": "U", "NORAD_CAT_ID": 34062, "ELEMENT_SET_NO": 999, "REV_AT_EPOCH": 88592, "BSTAR": 0.0039978404, "MEAN_MOTION_DOT": 0.00030804, "MEAN_MOTION_DDOT": 0}, "tle": {"line1": "1 34062U 93036JZ  25346.51322604  .00030804  00000+0  39978-2 0  9991", "line2": "2 34062  74.0279 138.4814 0074685 217.6273 204.3371 14.78653327885921"}}, "geometry": {"type": "Point", "coordinates": [144.83411738102112, 28.645678138755144]}}, {"type": "Feature", "properties": {"norad_id": 34064, "name": "COSMOS 2251 DEB", "group": "cosmos-2251-debris", "lat": 72.61837806333409, "lon": 22.63240390119861, "alt_km": 751.7535899042887, "timestamp": "2025-12-13T20:38:51.401450+00:00", "meta": {"OBJECT_NAME": "COSMOS 2251 DEB", "OBJECT_ID": "1993-036KB", "EPOCH": "2025-12-13T05:56:17.373120", "MEAN_MOTION": 14.42342364, "ECCENTRICITY": 0.00221371, "INCLINATION": 74.0327, "RA_OF_ASC_NODE": 269.926, "ARG_OF_PERICENTER": 336.2661, "MEAN_ANOMALY": 179.3148, "EPHEMERIS_TYPE": 0, "CLASSIFICATION_TYPE": "U", "NORAD_CAT_ID": 34064, "ELEMENT_SET_NO": 999, "REV_AT_EPOCH": 88149, "BSTAR": 0.00090137307, "MEAN_MOTION_DOT": 2.961e-05, "MEAN_MOTION_DDOT": 0}, "tle": {"line1": "1 34064U 93036KB  25347.24742330  .00002961  00000+0  90137-3 0  9994", "line2": "2 34064  74.0327 269.9260 0022137 336.2661 179.3148 14.42342364881494"}}, "geometry": {"type": "Point", "coordinates": [22.63240390119861, 72.61837806333409]}}, {"type": "Feature", "properties": {"norad_id": 34065, "name": "COSMOS 2251 DEB", "group": "cosmos-2251-debris", "lat": 73.77135128737642, "lon": -3.5092628137277955, "alt_km": 759.4188552214127, "timestamp": "2025-12-13T20:38:51.401461+00:00", "meta": {"OBJECT_NAME": "COSMOS 2251 DEB", "OBJECT_ID": "1993-036KC", "EPOCH": "2025-12-13T05:58:28.569792", "MEAN_MOTION": 14.38063835, "ECCENTRICITY": 0.0016406, "INCLINATION": 74.0357, "RA_OF_ASC_NODE": 257.1829, "ARG_OF_PERICENTER": 354.6175, "MEAN_ANOMALY": 174.2585, "EPHEMERIS_TYPE": 0, "CLASSIFICATION_TYPE": "U", "NORAD_CAT_ID": 34065, "ELEMENT_SET_NO": 999, "REV_AT_EPOCH": 88212, "BSTAR": 0.0002696783, "MEAN_MOTION_DOT": 7.92e-06, "MEAN_MOTION_DDOT": 0}, "tle": {"line1": "1 34065U 93036KC  25347.24894178  .00000792  00000+0  26968-3 0  9994", "line2": "2 34065  74.0357 257.1829 0016406 354.6175 174.2585 14.38063835882122"}}, "geometry": {"type": "Point", "coordinates": [-3.5092628137277955, 73.77135128737642]}}, {"type": "Feature", "properties": {"norad_id": 34070, "name": "COSMOS 2251 DEB", "group": "cosmos-2251-debris", "lat": 44.097912026889595, "lon": -82.07928757959513, "alt_km": 635.8634796257784, "timestamp": "2025-12-13T20:38:51.401471+00:00", "meta": {"OBJECT_NAME": "COSMOS 2251 DEB", "OBJECT_ID": "1993-036KH", "EPOCH": "2025-12-13T02:58:18.936192", "MEAN_MOTION": 14.77052093, "ECCENTRICITY": 0.00185734, "INCLINATION": 74, "RA_OF_ASC_NODE": 115.5106, "ARG_OF_PERICENTER": 231.4976, "MEAN_ANOMALY": 307.6465, "EPHEMERIS_TYPE": 0, "CLASSIFICATION_TYPE": "U", "NORAD_CAT_ID": 34070, "ELEMENT_SET_NO": 999, "REV_AT_EPOCH": 88616, "BSTAR": 0.0039183189, "MEAN_MOTION_DOT": 0.00027815, "MEAN_MOTION_DDOT": 0}, "tle": {"line1": "1 34070U 93036KH  25347.12383028  .00027815  00000+0  39183-2 0  9991", "line2": "2 34070  74.0000 115.5106 0018573 231.4976 307.6465 14.77052093886160"}}, "geometry": {"type": "Point", "coordinates": [-82.07928757959513, 44.097912026889595]}}, {"type": "Feature", "properties": {"norad_id": 34114, "name": "COSMOS 2251 DEB", "group": "cosmos-2251-debris", "lat": -70.33170940164607, "lon": -85.19729963269589, "alt_km": 736.4492795498327, "timestamp": "2025-12-13T20:38:51.401482+00:00", "meta": {"OBJECT_NAME": "COSMOS 2251 DEB", "OBJECT_ID": "1993-036KK", "EPOCH": "2025-12-13T04:54:56.435904", "MEAN_MOTION": 14.56392284, "ECCENTRICITY": 0.00474164, "INCLINATION": 74.0596, "RA_OF_ASC_NODE": 42.9497, "ARG_OF_PERICENTER": 37.2885, "MEAN_ANOMALY": 26.007, "EPHEMERIS_TYPE": 0, "CLASSIFICATION_TYPE": "U", "NORAD_CAT_ID": 34114, "ELEMENT_SET_NO": 999, "REV_AT_EPOCH": 87808, "BSTAR": 0.0023380004, "MEAN_MOTION_DOT": 0.00010521, "MEAN_MOTION_DDOT": 0}, "tle": {"line1": "1 34114U 93036KK  25347.20481986  .00010521  00000+0  23380-2 0  9999", "line2": "2 34114  74.0596  42.9497 0047416  37.2885  26.0070 14.56392284878086"}}, "geometry": {"type": "Point", "coordinates": [-85.19729963269589, -70.33170940164607]}}, {"type": "Feature", "properties": {"norad_id": 34115, "name": "COSMOS 2251 DEB", "group": "cosmos-2251-debris", "lat": 68.22730630076688, "lon": 13.835291232884293, "alt_km": 608.9626648787862, "timestamp": "2025-12-13T20:38:51.401492+00:00", "meta": {"OBJECT_NAME": "COSMOS 2251 DEB", "OBJECT_ID": "1993-036KL", "EPOCH": "2025-12-13T02:19:34.279392", "MEAN_MOTION": 14.79498219, "ECCENTRICITY": 0.00285172, "INCLINATION": 74.0062, "RA_OF_ASC_NODE": 241.2374, "ARG_OF_PERICENTER": 64.73, "MEAN_ANOMALY": 295.6826, "EPHEMERIS_TYPE": 0, "CLASSIFICATION_TYPE": "U", "NORAD_CAT_ID": 34115, "ELEMENT_SET_NO": 999, "REV_AT_EPOCH": 89417, "BSTAR": 0.0014572198, "MEAN_MOTION_DOT": 0.00010953, "MEAN_MOTION_DDOT": 0}, "tle": {"line1": "1 34115U 93036KL  25347.09692453  .00010953  00000+0  14572-2 0  9992", "line2": "2 34115  74.0062 241.2374 0028517  64.7300 295.6826 14.79498219894172"}}, "geometry": {"type": "Point", "coordinates": [13.835291232884293, 68.22730630076688]}}, {"type": "Feature", "properties": {"norad_id": 34116, "name": "COSMOS 2251 DEB", "group": "cosmos-2251-debris", "lat": -37.05643011875449, "lon": 168.1838075555535, "alt_km": 718.279751568115, "timestamp": "2025-12-13T20:38:51.401503+00:00", "meta": {"OBJECT_NAME": "COSMOS 2251 DEB", "OBJECT_ID": "1993-036KM", "EPOCH": "2025-12-13T00:02:25.020672", "MEAN_MOTION": 14.52977742, "ECCENTRICITY": 0.00120097, "INCLINATION": 74.0403, "RA_OF_ASC_NODE": 182.2822, "ARG_OF_PERICENTER": 258.4191, "MEAN_ANOMALY": 253.2639, "EPHEMERIS_TYPE": 0, "CLASSIFICATION_TYPE": "U", "NORAD_CAT_ID": 34116, "ELEMENT_SET_NO": 999, "REV_AT_EPOCH": 88490, "BSTAR": 0.0011109362, "MEAN_MOTION_DOT": 4.561e-05, "MEAN_MOTION_DDOT": 0}, "tle": {"line1": "1 34116U 93036KM  25347.00167848  .00004561  00000+0  11109-2 0  9990", "line2": "2 34116  74.0403 182.2822 0012009 258.4191 253.2639 14.52977742884909"}}, "geometry": {"type": "Point", "coordinates": [168.1838075555535, -37.05643011875449]}}]}